# Made by eph2tle, compiled Feb  6 2024 12:03:08
# Run at Thu Feb 15 11:01:37 2024
#
#    The following TLEs (Two-Line Elements) were generated by fitting
# a numerically-integrated ephemeris,  based on the orbit given below,
# to the SDP4/SGP4 models.  Each TLE is good for the interval between
# its epoch and the epoch of the subsequent TLE (usually one day).
# The maximum deviation between the numerically integrated ephemerides
# and the TLE-based ephemeris, in kilometers,  is given for each TLE
# as the "worst residual".
#
#    This fitting is done using the 'eph2tle' code packaged with Find_Orb.
# The code has details on how the TLEs were computed :
#
#    https://github.com/Bill-Gray/find_orb/eph2tle.cpp
#
#    Be warned:  the error given is that between the numerically
# integrated ephems and the TLE model.  There will usually be at
# least some additional difference between the ephems and the actual
# motion of the satellite,  especially if the ephemerides are based
# on a short arc.  If the following orbital elements say something
# like "[based on] 10 observations 2015 Jan. 1-13",  and the TLEs
# are for 2015 May,  the extrapolation may be tenuous at best.  If
# your application requires a specific level of accuracy,  you may
# want to contact me;  I can give you some idea as to the fit of the
# underlying data (and possibly TLEs based on newer data).
#
#   You can usually find the underlying observational data,  and the
# fitted orbit,  residuals,  ephemerides,  and sometimes some comments
# about the object,  among the pages listed at
#
#    https://www.projectpluto.com/pluto/mpecs/pseudo.htm
#
#    WARNING:  for this object,  "normal" TLEs cannot be fitted.  (This
# usually means an object with an hyperbolic or nearly-parabolic orbit.)
# For this and similar cases,   an alternative model is used,  in which
# most of the traditional TLE data is replaced by six signed 8-digit hex
# numbers.  These six numbers are a state vector,  numerically integrated
# using a simplified force model.  This is necessary for objects at L2 or
# L1,  and sometimes for objects in high orbits where the SDP4/SGP4 model
# fails.  Some documentation is in 'get_el.cpp' in the source code at
# https://www.github.com/Bill-Gray/sat_code ; look for 'hex' in that file,
# with the actual integration done in 'sdp4.cpp'.  But be aware:  it's my
# own extension,  doesn't work with other code,  and is therefore used
# only when necessary.
#
#    Also,  if you use a TLE outside the "correct" time range (between
# its MJD and that of the next TLE),  all bets are off.  I've carefully
# computed and minimized the worst error over the "correct" time frame,
# but the ephemeris may (or may not) diverge wildly outside of it.
#
# Ephem range: 60310.000000 60676.000000 1.000000
# Created Thu Feb 15 11:01:33 2024
# Ephemeris start:  1 Jan 2024  0:00:00
# Ephemeris end:    1 Jan 2025  0:00:00
# Times are all TDT
# Positions/velocities are in ecliptic J2000
# Orbital elements:  2019-040A = NORAD 44432 = Spektr-RG
#    Perigee 2024 Mar 7.5822098 +/- 0.000434 TT = 13:58:22.92 (JD 2460377.0822098)
# Epoch 2024 Jan 23.0 TT; AMR 0.017621 +/- 0.000269 m^2/kg         Find_Orb
# M 189.3155157099 +/- 0.0010         (J2000 equator)
# n   3.8285335149 +/- 1.65e-5        Peri.  301.7149375 +/- 0.00029
# a873471.09401 +/- 2.51              Node   336.3783789 +/- 0.00030
# e   0.914313472 +/- 7.04e-7         Incl.   47.4683785 +/- 0.00013
# P  94.0290d                H 27.67  G  0.15   U  5.4
# q 74844.705005 +/- 0.787    Q 0.0111772813 +/- 2.92e-8
# 110 of 260 observations 2023 Nov. 12-2024 Feb. 15; mean residual 0".471
#
# After 2024 Mar 03 :
#
# Orbital elements:  2019-040A = NORAD 44432 = Spektr-RG
#    Perihelion 2024 Mar 1.615050 +/- 0.00089 TT = 14:45:40.3 (JD 2460371.115050)
# Epoch 2024 Mar 20.0 TT; AMR 0.018227 +/- 0.00481 m^2/kg   Earth MOID: 0.0084
# M  16.734818563 +/- 0.0008          (J2000 ecliptic)             Find_Orb
# n   0.910245526 +/- 5.05e-6         Peri.  183.777165 +/- 0.0012
# a   1.054460576 +/- 3.9e-6          Node   337.167271 +/- 0.0008
# e   0.05020292 +/- 2.98e-6          Incl.    0.268887 +/- 0.000031
# P   1.083/395.490d         H 27.33  G  0.15   U  4.6
# q 1.001523574 +/- 5.85e-7    Q 1.107397577 +/- 7.24e-6
# 49 of 57 observations 2024 Mar. 3-20; mean residual 0".328
#
# After 2024 Jun 02 :
#
# Orbital elements:  2019-040A = NORAD 44432 = Spektr-RG
#    Perihelion 2024 Mar 3.863176 +/- 0.0424 TT = 20:42:58.4 (JD 2460373.363176)
# Epoch 2024 Jun 21.0 TT; AMR 0.0090256 +/- 0.0164 m^2/kg   Earth MOID: 0.0114
# M 103.469982098 +/- 0.040           (J2000 ecliptic)             Find_Orb
# n   0.948075806 +/- 7.99e-6         Peri.  295.717541 +/- 0.038
# a   1.026220470 +/- 5.76e-6         Node   230.120690 +/- 0.008
# e   0.00488783 +/- 4.21e-6          Incl.    0.226586 +/- 0.000055
# P   1.040/379.709d         H 26.44  G  0.15   U  4.9
# q 1.021204477 +/- 7.84e-6    Q 1.031236462 +/- 6.49e-6
# 29 of 203 observations 2024 June 9-July 2; mean residual 0".330
#
# 1 NoradU COSPAR   Epoch.epoch     dn/dt/2  d2n/dt2/6 BSTAR    T El# C
# 2 NoradU Inclina RAAscNode Eccent  ArgPeri MeanAno  MeanMotion Rev# C

# Worst residual: 0.88 km
# MJD 60310.000000 (2024 Jan  1  0:00)
2019-040A = NORAD 44432 = Spektr-RG
1 44432U 19040A   23365.99919926 -005167MH +00L1R2H7 +00HI9VQCH 22378
2 44432                          -0000FIQM -0000A4U3 +00008487     05

# Worst residual: 0.89 km
# MJD 60311.000000 (2024 Jan  2  0:00)
2019-040A = NORAD 44432 = Spektr-RG
1 44432U 19040A   24001.99919926 -0054TX0Y +00KZCDFO +00HK356UH 22371
2 44432                          -0000EYPC -00009X0T +00006ZVT     06

# Worst residual: 0.97 km
# MJD 60312.000000 (2024 Jan  3  0:00)
2019-040A = NORAD 44432 = Spektr-RG
1 44432U 19040A   24002.99919926 -0058CWJJ +00KWZYR9 +00HLMWGIH 22371
2 44432                          -0000EFJ1 -00009LRI +00005X13     00

# Worst residual: 1.13 km
# MJD 60313.000000 (2024 Jan  4  0:00)
2019-040A = NORAD 44432 = Spektr-RG
1 44432U 19040A   24003.99919926 -005BRGLC +00KUQO9G +00HMXIP4H 22378
2 44432                          -0000DXWR -00009723 +00004VQ7     03

# Worst residual: 1.30 km
# MJD 60314.000000 (2024 Jan  5  0:00)
2019-040A = NORAD 44432 = Spektr-RG
1 44432U 19040A   24004.99919926 -005F21RU +00KSLBJD +00HNZDH3H 22372
2 44432                          -0000DIL1 -00008OYL +00003W0C     03

# Worst residual: 1.41 km
# MJD 60315.000000 (2024 Jan  6  0:00)
2019-040A = NORAD 44432 = Spektr-RG
1 44432U 19040A   24005.99919926 -005I9BB9 +00KQKPDS +00HOSUHIH 22375
2 44432                          -0000D6CS -000083LQ +00002XVD     00

# Worst residual: 1.40 km
# MJD 60316.000000 (2024 Jan  7  0:00)
2019-040A = NORAD 44432 = Spektr-RG
1 44432U 19040A   24006.99919926 -005LE3P9 +00KOPL0I +00HPEB6KH 22376
2 44432                          -0000CY3O -00007F89 +00002195     05

# Worst residual: 1.27 km
# MJD 60317.000000 (2024 Jan  8  0:00)
2019-040A = NORAD 44432 = Spektr-RG
1 44432U 19040A   24007.99919926 -005OHHDG +00KN0MUU +00HPS458H 22376
2 44432                          -0000CUS0 -00006O93 +0000160D     06

# Worst residual: 1.11 km
# MJD 60318.000000 (2024 Jan  9  0:00)
2019-040A = NORAD 44432 = Spektr-RG
1 44432U 19040A   24008.99919926 -005RKR4T +00KLIEQO +00HPYK61H 22371
2 44432                          -0000CXCT -00005VC1 +00000BV7     04

# Worst residual: 1.02 km
# MJD 60319.000000 (2024 Jan 10  0:00)
2019-040A = NORAD 44432 = Spektr-RG
1 44432U 19040A   24009.99919926 -005UPFWK +00KK79IW +00HPXUZ6H 22373
2 44432                          -0000D6PU -000051FN -00000HM7     01

# Worst residual: 1.07 km
# MJD 60320.000000 (2024 Jan 11  0:00)
2019-040A = NORAD 44432 = Spektr-RG
1 44432U 19040A   24010.99919926 -005XX99N +00KJ3ADU +00HPQ3QTH 22377
2 44432                          -0000DNHQ -000047TW -00001B1Z     05

# Worst residual: 1.22 km
# MJD 60321.000000 (2024 Jan 12  0:00)
2019-040A = NORAD 44432 = Spektr-RG
1 44432U 19040A   24011.99919926 -0061A0GK +00KI68CK +00HPB7O5H 22372
2 44432                          -0000EBV9 -00003G1B -0000257E     09

# Worst residual: 1.33 km
# MJD 60322.000000 (2024 Jan 13  0:00)
2019-040A = NORAD 44432 = Spektr-RG
1 44432U 19040A   24012.99919926 -0064THW7 +00KHFGVS +00HOOX2CH 22379
2 44432                          -0000F7G7 -00002RN4 -000030VX     05

# Worst residual: 1.30 km
# MJD 60323.000000 (2024 Jan 14  0:00)
2019-040A = NORAD 44432 = Spektr-RG
1 44432U 19040A   24013.99919926 -0068LBX2 +00KGU07R +00HNURCCH 22374
2 44432                          -0000G98H -0000282Z -00003YUT     04

# Worst residual: 1.11 km
# MJD 60324.000000 (2024 Jan 15  0:00)
2019-040A = NORAD 44432 = Spektr-RG
1 44432U 19040A   24014.99919926 -006CMTYN +00KGCJN0 +00HMS42LH 22374
2 44432                          -0000HFQB -00001UFC -00004ZOX     07

# Worst residual: 0.87 km
# MJD 60325.000000 (2024 Jan 16  0:00)
2019-040A = NORAD 44432 = Spektr-RG
1 44432U 19040A   24015.99919926 -006GYX7B +00KFXLAK +00HLG8V8H 22372
2 44432                          -0000IP68 -00001N8Y -000063Q2     06

# Worst residual: 0.68 km
# MJD 60326.000000 (2024 Jan 17  0:00)
2019-040A = NORAD 44432 = Spektr-RG
1 44432U 19040A   24016.99919926 -006LM3BF +00KFJKJ2 +00HJUDO0H 22375
2 44432                          -0000JZRV -00001MMK -00007B0J     00

# Worst residual: 0.62 km
# MJD 60327.000000 (2024 Jan 18  0:00)
2019-040A = NORAD 44432 = Spektr-RG
1 44432U 19040A   24017.99919926 -006QKF66 +00KF4XWW +00HHXQV7H 22374
2 44432                          -0000L9X5 -00001S7Z -00008LEI     02

# Worst residual: 0.66 km
# MJD 60328.000000 (2024 Jan 19  0:00)
2019-040A = NORAD 44432 = Spektr-RG
1 44432U 19040A   24018.99919926 -006VTMUO +00KEOAA9 +00HFPN0GH 22371
2 44432                          -0000MIA3 -000023EJ -00009YKB     09

